0 WESTFORD NEEDLES
1 02997U 63014AU  13282.24349968  .00000006  00000-0  00000+0 0  7838
2 02997 086.3098 019.8416 1605977 020.1757 004.4314 08.80936964909905
0 WESTFORD NEEDLES
1 02997U 63014AU  13283.27238649  .00000006  00000-0  00000+0 0  7846
2 02997 086.3095 019.6916 1605992 018.9938 027.4686 08.80931718909996
0 WESTFORD NEEDLES
1 02997U 63014AU  13286.21404087  .00000005  00000-0  00000+0 0  7854
2 02997 086.3085 019.2630 1606169 015.5594 356.6889 08.80933579910252
0 WESTFORD NEEDLES
1 02997U 63014AU  13287.24636959  .00000005  00000-0  00000+0 0  7864
2 02997 086.3088 019.1130 1606364 014.3765 030.6050 08.80938167910340
0 WESTFORD NEEDLES
1 02997U 63014AU  13289.17111014  .00000005  00000-0  00000+0 0  7879
2 02997 086.3098 018.8339 1606768 012.1340 014.7079 08.80938619910516
0 WESTFORD NEEDLES
1 02997U 63014AU  13292.24271854  .00000005  00000-0  00000+0 0  7881
2 02997 086.3119 018.3892 1607768 008.5349 035.9911 08.80948304910789
0 WESTFORD NEEDLES
1 02997U 63014AU  13293.26477720  .00000005  00000-0  00000+0 0  7895
2 02997 086.3105 018.2373 1608245 007.3581 037.3282 08.80956861910877
0 WESTFORD NEEDLES
1 02997U 63014AU  13295.18750968  .00000004  00000-0  00000+0 0  7907
2 02997 086.3125 017.9598 1609120 005.1200 015.0758 08.80959388911049
